start=new Date('2023-06-25T00:00:00.000Z').valueOf();
sats=[{"CLASSIFICATION_TYPE":"U","MEAN_MOTION_DOT":"0.00013991","TLE_LINE2":"2 56807  70.0004 344.9598 0003702 275.7329  84.3444 15.69933080  4126","RA_OF_ASC_NODE":"344.9598","MEAN_MOTION":"15.69933080","EPOCH":"2023-06-24T13:50:41.182656","PERIAPSIS":"356.596","FILE":"3941698","MEAN_ELEMENT_THEORY":"SGP4","OBJECT_TYPE":"PAYLOAD","ARG_OF_PERICENTER":"275.7329","RCS_SIZE":"LARGE","MEAN_MOTION_DDOT":"0.0000000000000","TLE_LINE1":"1 56807U 23078AS  23175.57686554  .00013991  00000-0  11788-3 0  9991","ECCENTRICITY":"0.00037020","BSTAR":"0.00011788000000","INCLINATION":"70.0004","DECAY_DATE":null,"TIME_SYSTEM":"UTC","REF_FRAME":"TEME","OBJECT_NAME":"STARLINK-6073","SEMIMAJOR_AXIS":"6737.225","APOAPSIS":"361.585","COUNTRY_CODE":"US","ELEMENT_SET_NO":"999","PERIOD":"91.724","SITE":"AFWTR","CENTER_NAME":"EARTH","NORAD_CAT_ID":"56807","EPHEMERIS_TYPE":"0","GP_ID":"234526852","OBJECT_ID":"2023-078AS","LAUNCH_DATE":"2023-05-31","REV_AT_EPOCH":"412","MEAN_ANOMALY":"84.3444"},{"REF_FRAME":"TEME","BSTAR":"0.00004585200000","INCLINATION":"70.0002","DECAY_DATE":null,"TIME_SYSTEM":"UTC","MEAN_MOTION_DDOT":"0.0000000000000","TLE_LINE1":"1 56808U 23078AT  23175.64068741  .00005305  00000-0  45852-4 0  9992","ECCENTRICITY":"0.00037940","ARG_OF_PERICENTER":"269.2914","RCS_SIZE":"LARGE","PERIAPSIS":"356.550","EPOCH":"2023-06-24T15:22:35.392224","MEAN_ELEMENT_THEORY":"SGP4","FILE":"3941698","OBJECT_TYPE":"PAYLOAD","TLE_LINE2":"2 56808  70.0002 344.7836 0003794 269.2914  90.7847 15.69927498  4132","RA_OF_ASC_NODE":"344.7836","MEAN_MOTION":"15.69927498","CLASSIFICATION_TYPE":"U","MEAN_MOTION_DOT":"0.00005305","MEAN_ANOMALY":"90.7847","OBJECT_ID":"2023-078AT","REV_AT_EPOCH":"413","LAUNCH_DATE":"2023-05-31","GP_ID":"234526854","SITE":"AFWTR","NORAD_CAT_ID":"56808","CENTER_NAME":"EARTH","EPHEMERIS_TYPE":"0","PERIOD":"91.724","ELEMENT_SET_NO":"999","APOAPSIS":"361.663","COUNTRY_CODE":"US","SEMIMAJOR_AXIS":"6737.241","OBJECT_NAME":"STARLINK-6042"},{"COUNTRY_CODE":"US","APOAPSIS":"361.592","PERIOD":"91.724","ELEMENT_SET_NO":"999","OBJECT_NAME":"STARLINK-6040","SEMIMAJOR_AXIS":"6737.262","REV_AT_EPOCH":"407","LAUNCH_DATE":"2023-05-31","OBJECT_ID":"2023-078AU","MEAN_ANOMALY":"86.6295","EPHEMERIS_TYPE":"0","SITE":"AFWTR","NORAD_CAT_ID":"56809","CENTER_NAME":"EARTH","GP_ID":"234519840","OBJECT_TYPE":"PAYLOAD","EPOCH":"2023-06-24T06:12:13.930848","PERIAPSIS":"356.663","MEAN_ELEMENT_THEORY":"SGP4","FILE":"3941427","RCS_SIZE":"LARGE","ARG_OF_PERICENTER":"273.4482","MEAN_MOTION_DOT":"0.00000909","CLASSIFICATION_TYPE":"U","MEAN_MOTION":"15.69920177","TLE_LINE2":"2 56809  69.9996 345.8545 0003658 273.4482  86.6295 15.69920177  4078","RA_OF_ASC_NODE":"345.8545","REF_FRAME":"TEME","ECCENTRICITY":"0.00036580","MEAN_MOTION_DDOT":"0.0000000000000","TLE_LINE1":"1 56809U 23078AU  23175.25849457  .00000909  00000-0  93282-5 0  9997","DECAY_DATE":null,"TIME_SYSTEM":"UTC","BSTAR":"0.00000932820000","INCLINATION":"69.9996"},{"OBJECT_NAME":"STARLINK-6031","SEMIMAJOR_AXIS":"6737.244","COUNTRY_CODE":"US","APOAPSIS":"361.892","ELEMENT_SET_NO":"999","PERIOD":"91.724","EPHEMERIS_TYPE":"0","CENTER_NAME":"EARTH","NORAD_CAT_ID":"56810","SITE":"AFWTR","GP_ID":"234526674","REV_AT_EPOCH":"412","LAUNCH_DATE":"2023-05-31","OBJECT_ID":"2023-078AV","MEAN_ANOMALY":"90.1560","MEAN_MOTION_DOT":"0.00012920","CLASSIFICATION_TYPE":"U","MEAN_MOTION":"15.69926598","RA_OF_ASC_NODE":"344.9632","TLE_LINE2":"2 56810  70.0003 344.9632 0004131 269.9162  90.1560 15.69926598  4125","OBJECT_TYPE":"PAYLOAD","MEAN_ELEMENT_THEORY":"SGP4","FILE":"3941698","EPOCH":"2023-06-24T13:51:45.079776","PERIAPSIS":"356.326","RCS_SIZE":"LARGE","ARG_OF_PERICENTER":"269.9162","ECCENTRICITY":"0.00041310","TLE_LINE1":"1 56810U 23078AV  23175.57760509  .00012920  00000-0  10903-3 0  9997","MEAN_MOTION_DDOT":"0.0000000000000","TIME_SYSTEM":"UTC","DECAY_DATE":null,"INCLINATION":"70.0003","BSTAR":"0.00010903000000","REF_FRAME":"TEME"},{"APOAPSIS":"361.618","COUNTRY_CODE":"US","PERIOD":"91.723","ELEMENT_SET_NO":"999","OBJECT_NAME":"STARLINK-6063","SEMIMAJOR_AXIS":"6737.212","OBJECT_ID":"2023-078AW","REV_AT_EPOCH":"412","LAUNCH_DATE":"2023-05-31","MEAN_ANOMALY":"86.7681","SITE":"AFWTR","CENTER_NAME":"EARTH","NORAD_CAT_ID":"56811","EPHEMERIS_TYPE":"0","GP_ID":"234526673","EPOCH":"2023-06-24T13:50:13.804224","PERIAPSIS":"356.537","FILE":"3941698","MEAN_ELEMENT_THEORY":"SGP4","OBJECT_TYPE":"PAYLOAD","ARG_OF_PERICENTER":"273.3083","RCS_SIZE":"LARGE","CLASSIFICATION_TYPE":"U","MEAN_MOTION_DOT":"0.00020036","TLE_LINE2":"2 56811  70.0005 344.9565 0003771 273.3083  86.7681 15.69937709  4124","RA_OF_ASC_NODE":"344.9565","MEAN_MOTION":"15.69937709","REF_FRAME":"TEME","MEAN_MOTION_DDOT":"0.0000000000000","TLE_LINE1":"1 56811U 23078AW  23175.57654866  .00020036  00000-0  16789-3 0  9991","ECCENTRICITY":"0.00037710","INCLINATION":"70.0005","BSTAR":"0.00016789000000","DECAY_DATE":null,"TIME_SYSTEM":"UTC"},{"EPOCH":"2023-06-24T13:51:08.418528","PERIAPSIS":"356.580","MEAN_ELEMENT_THEORY":"SGP4","FILE":"3941699","OBJECT_TYPE":"PAYLOAD","ARG_OF_PERICENTER":"268.6367","RCS_SIZE":"LARGE","CLASSIFICATION_TYPE":"U","MEAN_MOTION_DOT":"0.00011713","TLE_LINE2":"2 56812  70.0006 344.9619 0003732 268.6367  91.4401 15.69931888  4120","RA_OF_ASC_NODE":"344.9619","MEAN_MOTION":"15.69931888","REF_FRAME":"TEME","TLE_LINE1":"1 56812U 23078AX  23175.57718077  .00011713  00000-0  99004-4 0  9991","MEAN_MOTION_DDOT":"0.0000000000000","ECCENTRICITY":"0.00037320","BSTAR":"0.00009900400000","INCLINATION":"70.0006","DECAY_DATE":null,"TIME_SYSTEM":"UTC","APOAPSIS":"361.608","COUNTRY_CODE":"US","ELEMENT_SET_NO":"999","PERIOD":"91.724","OBJECT_NAME":"STARLINK-6065","SEMIMAJOR_AXIS":"6737.229","OBJECT_ID":"2023-078AX","REV_AT_EPOCH":"412","LAUNCH_DATE":"2023-05-31","MEAN_ANOMALY":"91.4401","SITE":"AFWTR","NORAD_CAT_ID":"56812","CENTER_NAME":"EARTH","EPHEMERIS_TYPE":"0","GP_ID":"234526867"},{"MEAN_MOTION":"15.69926946","RA_OF_ASC_NODE":"345.8541","TLE_LINE2":"2 56813  70.0013 345.8541 0003874 272.1553  87.9200 15.69926946  4077","MEAN_MOTION_DOT":"0.00003213","CLASSIFICATION_TYPE":"U","RCS_SIZE":"LARGE","ARG_OF_PERICENTER":"272.1553","OBJECT_TYPE":"PAYLOAD","EPOCH":"2023-06-24T06:11:19.074624","PERIAPSIS":"356.498","FILE":"3941428","MEAN_ELEMENT_THEORY":"SGP4","DECAY_DATE":null,"TIME_SYSTEM":"UTC","BSTAR":"0.00002847700000","INCLINATION":"70.0013","ECCENTRICITY":"0.00038740","TLE_LINE1":"1 56813U 23078AY  23175.25785966  .00003213  00000-0  28477-4 0  9990","MEAN_MOTION_DDOT":"0.0000000000000","REF_FRAME":"TEME","SEMIMAJOR_AXIS":"6737.243","OBJECT_NAME":"STARLINK-6056","ELEMENT_SET_NO":"999","PERIOD":"91.724","COUNTRY_CODE":"US","APOAPSIS":"361.718","GP_ID":"234519851","EPHEMERIS_TYPE":"0","SITE":"AFWTR","NORAD_CAT_ID":"56813","CENTER_NAME":"EARTH","MEAN_ANOMALY":"87.9200","REV_AT_EPOCH":"407","LAUNCH_DATE":"2023-05-31","OBJECT_ID":"2023-078AY"},{"EPHEMERIS_TYPE":"0","NORAD_CAT_ID":"56814","CENTER_NAME":"EARTH","SITE":"AFWTR","GP_ID":"234526866","REV_AT_EPOCH":"412","LAUNCH_DATE":"2023-05-31","OBJECT_ID":"2023-078AZ","MEAN_ANOMALY":"83.0151","OBJECT_NAME":"STARLINK-6059","SEMIMAJOR_AXIS":"6737.206","COUNTRY_CODE":"US","APOAPSIS":"361.652","ELEMENT_SET_NO":"999","PERIOD":"91.723","ECCENTRICITY":"0.00038300","MEAN_MOTION_DDOT":"0.0000000000000","TLE_LINE1":"1 56814U 23078AZ  23175.57665563  .00023980  00000-0  20048-3 0  9994","TIME_SYSTEM":"UTC","DECAY_DATE":null,"INCLINATION":"69.9992","BSTAR":"0.00020048000000","REF_FRAME":"TEME","MEAN_MOTION_DOT":"0.00023980","CLASSIFICATION_TYPE":"U","MEAN_MOTION":"15.69939772","TLE_LINE2":"2 56814  69.9992 344.9591 0003830 277.0609  83.0151 15.69939772  4123","RA_OF_ASC_NODE":"344.9591","OBJECT_TYPE":"PAYLOAD","MEAN_ELEMENT_THEORY":"SGP4","FILE":"3941699","PERIAPSIS":"356.491","EPOCH":"2023-06-24T13:50:23.046432","RCS_SIZE":"LARGE","ARG_OF_PERICENTER":"277.0609"},{"OBJECT_NAME":"STARLINK-6057","SEMIMAJOR_AXIS":"6737.258","COUNTRY_CODE":"US","APOAPSIS":"361.610","ELEMENT_SET_NO":"999","PERIOD":"91.724","EPHEMERIS_TYPE":"0","SITE":"AFWTR","CENTER_NAME":"EARTH","NORAD_CAT_ID":"56815","GP_ID":"234527596","LAUNCH_DATE":"2023-05-31","REV_AT_EPOCH":"412","OBJECT_ID":"2023-078BA","MEAN_ANOMALY":"86.6357","MEAN_MOTION_DOT":"0.00002643","CLASSIFICATION_TYPE":"U","MEAN_MOTION":"15.69921700","RA_OF_ASC_NODE":"344.9567","TLE_LINE2":"2 56815  70.0000 344.9567 0003692 273.4416  86.6357 15.69921700  4121","OBJECT_TYPE":"PAYLOAD","PERIAPSIS":"356.636","EPOCH":"2023-06-24T13:49:46.792128","FILE":"3941717","MEAN_ELEMENT_THEORY":"SGP4","RCS_SIZE":"LARGE","ARG_OF_PERICENTER":"273.4416","ECCENTRICITY":"0.00036920","MEAN_MOTION_DDOT":"0.0000000000000","TLE_LINE1":"1 56815U 23078BA  23175.57623602  .00002643  00000-0  23749-4 0  9998","DECAY_DATE":null,"TIME_SYSTEM":"UTC","INCLINATION":"70.0000","BSTAR":"0.00002374900000","REF_FRAME":"TEME"},{"EPHEMERIS_TYPE":"0","CENTER_NAME":"EARTH","NORAD_CAT_ID":"56816","SITE":"AFWTR","GP_ID":"234526694","REV_AT_EPOCH":"413","LAUNCH_DATE":"2023-05-31","OBJECT_ID":"2023-078BB","MEAN_ANOMALY":"90.1099","OBJECT_NAME":"STARLINK-6067","SEMIMAJOR_AXIS":"6737.241","COUNTRY_CODE":"US","APOAPSIS":"362.303","ELEMENT_SET_NO":"999","PERIOD":"91.724","ECCENTRICITY":"0.00047460","MEAN_MOTION_DDOT":"0.0000000000000","TLE_LINE1":"1 56816U 23078BB  23175.64005513  .00034193  00000-0  28485-3 0  9998","TIME_SYSTEM":"UTC","DECAY_DATE":null,"INCLINATION":"69.9995","BSTAR":"0.00028485000000","REF_FRAME":"TEME","MEAN_MOTION_DOT":"0.00034193","CLASSIFICATION_TYPE":"U","MEAN_MOTION":"15.69927807","TLE_LINE2":"2 56816  69.9995 344.7807 0004746 269.9553  90.1099 15.69927807  4138","RA_OF_ASC_NODE":"344.7807","OBJECT_TYPE":"PAYLOAD","MEAN_ELEMENT_THEORY":"SGP4","FILE":"3941699","EPOCH":"2023-06-24T15:21:40.763232","PERIAPSIS":"355.908","RCS_SIZE":"LARGE","ARG_OF_PERICENTER":"269.9553"}];
